{
  "type": "FeatureCollection",
  "features": [
    {
      "type": "Feature",
      "properties": {
        "norad_id": 33860,
        "name": "IRIDIUM 33 DEB",
        "group": "iridium-33-debris",
        "lat": -48.20506521748849,
        "lon": 24.523937009694254,
        "alt_km": 673.5499587535014,
        "timestamp": "2025-12-09T16:56:36.958978+00:00",
        "meta_object_name": "IRIDIUM 33 DEB",
        "meta_object_id": "1997-051AD",
        "meta_epoch": "2025-12-09T02:41:58.809408",
        "meta_mean_motion": 14.67293225,
        "meta_eccentricity": 0.00079354,
        "meta_inclination": 86.3836,
        "meta_ra_of_asc_node": 28.8434,
        "meta_arg_of_pericenter": 10.3707,
        "meta_mean_anomaly": 48.4876,
        "meta_ephemeris_type": 0,
        "meta_classification_type": "U",
        "meta_norad_cat_id": 33860,
        "meta_element_set_no": 999,
        "meta_rev_at_epoch": 88669,
        "meta_bstar": 0.001421155,
        "meta_mean_motion_dot": 8.042e-05,
        "meta_mean_motion_ddot": 0,
        "tle_line1": "1 33860U 97051AD  25343.11248622  .00008042  00000+0  14212-2 0  9990",
        "tle_line2": "2 33860  86.3836  28.8434 0007935  10.3707  48.4876 14.67293225886692"
      },
      "geometry": {
        "type": "Point",
        "coordinates": [
          24.523937009694254,
          -48.20506521748849
        ]
      }
    },
    {
      "type": "Feature",
      "properties": {
        "norad_id": 33862,
        "name": "IRIDIUM 33 DEB",
        "group": "iridium-33-debris",
        "lat": -36.35289495758079,
        "lon": 36.218440271509955,
        "alt_km": 685.6498352984672,
        "timestamp": "2025-12-09T16:56:36.958990+00:00",
        "meta_object_name": "IRIDIUM 33 DEB",
        "meta_object_id": "1997-051AF",
        "meta_epoch": "2025-12-09T10:37:00.405120",
        "meta_mean_motion": 14.69387938,
        "meta_eccentricity": 0.005373,
        "meta_inclination": 86.4087,
        "meta_ra_of_asc_node": 38.984,
        "meta_arg_of_pericenter": 80.2159,
        "meta_mean_anomaly": 290.4324,
        "meta_ephemeris_type": 0,
        "meta_classification_type": "U",
        "meta_norad_cat_id": 33862,
        "meta_element_set_no": 999,
        "meta_rev_at_epoch": 88775,
        "meta_bstar": 0.0018727,
        "meta_mean_motion_dot": 0.00011351,
        "meta_mean_motion_ddot": 0,
        "tle_line1": "1 33862U 97051AF  25343.44236580  .00011351  00000+0  18727-2 0  9990",
        "tle_line2": "2 33862  86.4087  38.9840 0053730  80.2159 290.4324 14.69387938887759"
      },
      "geometry": {
        "type": "Point",
        "coordinates": [
          36.218440271509955,
          -36.35289495758079
        ]
      }
    },
    {
      "type": "Feature",
      "properties": {
        "norad_id": 33866,
        "name": "IRIDIUM 33 DEB",
        "group": "iridium-33-debris",
        "lat": 29.1283226654317,
        "lon": -87.7472649614965,
        "alt_km": 729.2243299304837,
        "timestamp": "2025-12-09T16:56:36.959001+00:00",
        "meta_object_name": "IRIDIUM 33 DEB",
        "meta_object_id": "1997-051AK",
        "meta_epoch": "2025-12-09T08:04:16.568832",
        "meta_mean_motion": 14.25257308,
        "meta_eccentricity": 0.0114196,
        "meta_inclination": 86.3001,
        "meta_ra_of_asc_node": 94.4755,
        "meta_arg_of_pericenter": 172.2365,
        "meta_mean_anomaly": 243.3037,
        "meta_ephemeris_type": 0,
        "meta_classification_type": "U",
        "meta_norad_cat_id": 33866,
        "meta_element_set_no": 999,
        "meta_rev_at_epoch": 86762,
        "meta_bstar": 0.0011951,
        "meta_mean_motion_dot": 3.027e-05,
        "meta_mean_motion_ddot": 0,
        "tle_line1": "1 33866U 97051AK  25343.33630288  .00003027  00000+0  11951-2 0  9998",
        "tle_line2": "2 33866  86.3001  94.4755 0114196 172.2365 243.3037 14.25257308867626"
      },
      "geometry": {
        "type": "Point",
        "coordinates": [
          -87.7472649614965,
          29.1283226654317
        ]
      }
    },
    {
      "type": "Feature",
      "properties": {
        "norad_id": 33867,
        "name": "IRIDIUM 33 DEB",
        "group": "iridium-33-debris",
        "lat": 76.47709960664261,
        "lon": 156.3414355183556,
        "alt_km": 365.7329797140537,
        "timestamp": "2025-12-09T16:56:36.959012+00:00",
        "meta_object_name": "IRIDIUM 33 DEB",
        "meta_object_id": "1997-051AL",
        "meta_epoch": "2025-12-09T11:53:31.734816",
        "meta_mean_motion": 15.61827995,
        "meta_eccentricity": 0.0013164,
        "meta_inclination": 86.3636,
        "meta_ra_of_asc_node": 351.7835,
        "meta_arg_of_pericenter": 91.8218,
        "meta_mean_anomaly": 268.4555,
        "meta_ephemeris_type": 0,
        "meta_classification_type": "U",
        "meta_norad_cat_id": 33867,
        "meta_element_set_no": 999,
        "meta_rev_at_epoch": 89460,
        "meta_bstar": 0.0081007,
        "meta_mean_motion_dot": 0.00770772,
        "meta_mean_motion_ddot": 0,
        "tle_line1": "1 33867U 97051AL  25343.49550619  .00770772  00000+0  81007-2 0  9992",
        "tle_line2": "2 33867  86.3636 351.7835 0013164  91.8218 268.4555 15.61827995894602"
      },
      "geometry": {
        "type": "Point",
        "coordinates": [
          156.3414355183556,
          76.47709960664261
        ]
      }
    },
    {
      "type": "Feature",
      "properties": {
        "norad_id": 33870,
        "name": "IRIDIUM 33 DEB",
        "group": "iridium-33-debris",
        "lat": 25.337799168057742,
        "lon": 61.28137723021752,
        "alt_km": 752.9463696239645,
        "timestamp": "2025-12-09T16:56:36.959024+00:00",
        "meta_object_name": "IRIDIUM 33 DEB",
        "meta_object_id": "1997-051AP",
        "meta_epoch": "2025-12-09T11:54:50.942016",
        "meta_mean_motion": 14.45824551,
        "meta_eccentricity": 0.002111,
        "meta_inclination": 86.3747,
        "meta_ra_of_asc_node": 59.6509,
        "meta_arg_of_pericenter": 188.7487,
        "meta_mean_anomaly": 186.7606,
        "meta_ephemeris_type": 0,
        "meta_classification_type": "U",
        "meta_norad_cat_id": 33870,
        "meta_element_set_no": 999,
        "meta_rev_at_epoch": 88090,
        "meta_bstar": 0.0013296,
        "meta_mean_motion_dot": 4.75e-05,
        "meta_mean_motion_ddot": 0,
        "tle_line1": "1 33870U 97051AP  25343.49642294  .00004750  00000+0  13296-2 0  9998",
        "tle_line2": "2 33870  86.3747  59.6509 0021110 188.7487 186.7606 14.45824551880908"
      },
      "geometry": {
        "type": "Point",
        "coordinates": [
          61.28137723021752,
          25.337799168057742
        ]
      }
    },
    {
      "type": "Feature",
      "properties": {
        "norad_id": 33881,
        "name": "IRIDIUM 33 DEB",
        "group": "iridium-33-debris",
        "lat": 43.09228776043359,
        "lon": -75.32818426533171,
        "alt_km": 671.6672514914499,
        "timestamp": "2025-12-09T16:56:36.959035+00:00",
        "meta_object_name": "IRIDIUM 33 DEB",
        "meta_object_id": "1997-051BA",
        "meta_epoch": "2025-12-09T10:01:33.651840",
        "meta_mean_motion": 14.56473135,
        "meta_eccentricity": 0.006143,
        "meta_inclination": 86.3869,
        "meta_ra_of_asc_node": 108.1859,
        "meta_arg_of_pericenter": 185.4197,
        "meta_mean_anomaly": 241.4978,
        "meta_ephemeris_type": 0,
        "meta_classification_type": "U",
        "meta_norad_cat_id": 33881,
        "meta_element_set_no": 999,
        "meta_rev_at_epoch": 87452,
        "meta_bstar": 0.0028428,
        "meta_mean_motion_dot": 0.00012995,
        "meta_mean_motion_ddot": 0,
        "tle_line1": "1 33881U 97051BA  25343.41775060  .00012995  00000+0  28428-2 0  9993",
        "tle_line2": "2 33881  86.3869 108.1859 0061430 185.4197 241.4978 14.56473135874526"
      },
      "geometry": {
        "type": "Point",
        "coordinates": [
          -75.32818426533171,
          43.09228776043359
        ]
      }
    },
    {
      "type": "Feature",
      "properties": {
        "norad_id": 33884,
        "name": "IRIDIUM 33 DEB",
        "group": "iridium-33-debris",
        "lat": -36.42869055427096,
        "lon": -166.12663064873385,
        "alt_km": 647.6182107555878,
        "timestamp": "2025-12-09T16:56:36.959046+00:00",
        "meta_object_name": "IRIDIUM 33 DEB",
        "meta_object_id": "1997-051BD",
        "meta_epoch": "2025-12-09T09:45:18.182016",
        "meta_mean_motion": 14.77324813,
        "meta_eccentricity": 0.0010071,
        "meta_inclination": 86.3695,
        "meta_ra_of_asc_node": 11.3227,
        "meta_arg_of_pericenter": 336.3653,
        "meta_mean_anomaly": 88.215,
        "meta_ephemeris_type": 0,
        "meta_classification_type": "U",
        "meta_norad_cat_id": 33884,
        "meta_element_set_no": 999,
        "meta_rev_at_epoch": 88798,
        "meta_bstar": 0.0018287,
        "meta_mean_motion_dot": 0.00013029,
        "meta_mean_motion_ddot": 0,
        "tle_line1": "1 33884U 97051BD  25343.40646044  .00013029  00000+0  18287-2 0  9995",
        "tle_line2": "2 33884  86.3695  11.3227 0010071 336.3653  88.2150 14.77324813887983"
      },
      "geometry": {
        "type": "Point",
        "coordinates": [
          -166.12663064873385,
          -36.42869055427096
        ]
      }
    }
  ]
}